CZ-2C R/B               
1 54039U 22132E   26057.92466128  .00042708  00000+0  50736-3 0  9993
2 54039  97.2966  60.9240 0020571 125.7005 234.6171 15.60793227188696
GSLV R/B                
1 54149U 22138AN  26057.75614813  .00003117  00000+0  26958-3 0  9998
2 54149  87.3876 170.0209 0021466 185.0672 175.0346 14.96679584182298
XRISM                   
1 57800U 23137A   26058.14018932  .00006107  00000+0  34747-3 0  9996
2 57800  31.0035 351.8898 0008245 293.2691  66.7080 15.11351465136196
ACS3                    
1 59588U 24077B   26057.83925891  .00013865  00000+0  11310-1 0  9999
2 59588  97.2121   1.3909 0052607 106.7284 253.9662 13.89066758 92691
SZ-21 MODULE            
1 66515U 25246C   26057.67317424  .00037285  00000+0  33362-3 0  9990
2 66515  41.4744 271.1302 0001433 288.0377  72.0308 15.67604463 16347
